NORAD_CAT_ID,OBJECT_NAME,OBJECT_TYPE,EPOCH,MEAN_MOTION,ECCENTRICITY,INCLINATION,RA_OF_ASC_NODE,ARG_OF_PERICENTER,MEAN_ANOMALY,BSTAR,MEAN_MOTION_DOT,MEAN_MOTION_DDOT,TLE_LINE0,TLE_LINE1,TLE_LINE2,SEMIMAJOR_AXIS,PERIOD,APOGEE,PERIGEE,DECAYED
49166.0,STARLINK-3089,PAYLOAD,2022-03-21 14:00:01,14.96676733,0.0002964,69.9992,327.1559,269.5668,112.9955,0.0060069,0.00069279,0.0,0 STARLINK-3089,1 49166U 21082AN  22080.58334491  .00069279  00000-0  60069-2 0  9994,2 49166  69.9992 327.1559 0002964 269.5668 112.9955 14.96676733  3587,6955.31,96.213,579.237,575.114,0.0
49166.0,STARLINK-3089,PAYLOAD,2022-03-21 22:00:00,14.96716523,0.0002973,69.9994,326.3174,274.3165,103.7777,-0.0010615,-0.0001222,0.0,0 STARLINK-3089,1 49166U 21082AN  22080.91667824 -.00012220  00000-0 -10615-2 0  9998,2 49166  69.9994 326.3174 0002973 274.3165 103.7777 14.96716523 30682,6955.187,96.211,579.12,574.984,0.0
49166.0,STARLINK-3089,PAYLOAD,2022-03-22 14:00:01,14.96687478,0.0002872,69.9989,324.6404,269.7043,99.4831,0.0055246,0.00063675,0.0,0 STARLINK-3089,1 49166U 21082AN  22081.58334491  .00063675  00000-0  55246-2 0  9990,2 49166  69.9989 324.6404 0002872 269.7043  99.4831 14.96687478  3615,6955.276999999999,96.212,579.139,575.144,0.0
49166.0,STARLINK-3089,PAYLOAD,2022-03-22 20:00:01,14.96738816,0.0002917,69.9993,324.0114,272.5733,3.2625,-0.0030983,-0.00035396,0.0,0 STARLINK-3089,1 49166U 21082AN  22081.83334491 -.00035396  00000-0 -30983-2 0  9990,2 49166  69.9993 324.0114 0002917 272.5733   3.2625 14.96738816 30820,6955.118,96.209,579.012,574.9540000000002,0.0
49166.0,STARLINK-3089,PAYLOAD,2022-03-22 22:00:01,14.96722718,0.0002901999999999,69.9992,323.8018,274.6714,90.1221,-0.00075687,-8.745e-05,0.0,0 STARLINK-3089,1 49166U 21082AN  22081.91668981 -.00008745  00000-0 -75687-3 0  9992,2 49166  69.9992 323.8018 0002902 274.6714  90.1221 14.96722718  3602,6955.168000000002,96.21,579.0509999999998,575.014,0.0
49166.0,STARLINK-3089,PAYLOAD,2022-03-23 14:00:01,14.96710624,0.0002904,69.9989,322.1247,269.0611,86.7824,0.0016699,0.00019071,0.0,0 STARLINK-3089,1 49166U 21082AN  22082.58334491  .00019071  00000-0  16699-2 0  9991,2 49166  69.9989 322.1247 0002904 269.0611  86.7824 14.96710624 30939,6955.205,96.211,579.09,575.05,0.0
49166.0,STARLINK-3089,PAYLOAD,2022-03-23 22:00:00,14.9670469,0.0003017,69.9992,321.2861,273.6629,77.7389,-0.00060642,-7.024e-05,0.0,0 STARLINK-3089,1 49166U 21082AN  22082.91667824 -.00007024  00000-0 -60642-3 0  9992,2 49166  69.9992 321.2861 0003017 273.6629  77.7389 14.96704690  3595,6955.224,96.211,579.187,574.99,0.0
49166.0,STARLINK-3089,PAYLOAD,2022-03-24 06:00:00,14.96728826,0.0003024,69.9989,320.4475,275.3133,71.61399999999998,-0.0041707,-0.00047521,0.0,0 STARLINK-3089,1 49166U 21082AN  22083.25001157 -.00047521  00000-0 -41707-2 0  9997,2 49166  69.9989 320.4475 0003024 275.3133  71.6140 14.96728826 31035,6955.149,96.21,579.117,574.911,0.0
49166.0,STARLINK-3089,PAYLOAD,2022-03-24 14:00:01,14.96686138,0.0002999,69.9991,319.6090000000001,268.5362,73.9381,0.0047577,0.00054751,0.0,0 STARLINK-3089,1 49166U 21082AN  22083.58334491  .00054751  00000-0  47577-2 0  9995,2 49166  69.9991 319.6090 0002999 268.5362  73.9381 14.96686138  3578,6955.281,96.213,579.232,575.06,0.0
49166.0,STARLINK-3089,PAYLOAD,2022-03-24 22:00:00,14.967132,0.0003038,69.9993,318.7705,273.4374,64.578,-0.00028078,-3.304e-05,0.0,0 STARLINK-3089,1 49166U 21082AN  22083.91667824 -.00003304  00000-0 -28078-3 0  9997,2 49166  69.9993 318.7705 0003038 273.4374  64.5780 14.96713200  3598,6955.196999999999,96.211,579.175,574.9490000000002,0.0
49166.0,STARLINK-3089,PAYLOAD,2022-03-25 00:00:02,14.96702372,0.0003025,69.9994,318.5608,274.9625,152.004,0.0020125,0.00023011,0.0,0 STARLINK-3089,1 49166U 21082AN  22084.00002315  .00023011  00000-0  20125-2 0  9995,2 49166  69.9994 318.5608 0003025 274.9625 152.0040 14.96702372 31142,6955.231,96.212,579.2,574.992,0.0
49166.0,STARLINK-3089,PAYLOAD,2022-03-25 14:00:01,14.96706606,0.0003006,70.0001,317.1029,271.2727,57.7867,0.0012281,0.0001399,0.0,0 STARLINK-3089,1 49166U 21082AN  22084.58334491  .00013990  00000-0  12281-2 0  9990,2 49166  70.0001 317.1029 0003006 271.2727  57.7867 14.96706606 31230,6955.218000000003,96.211,579.173,574.992,0.0
49166.0,STARLINK-3089,PAYLOAD,2022-03-25 22:00:01,14.96714467,0.0002976,70.0,316.2653,273.8519,50.8139,8.2149e-05,8.49e-06,0.0,0 STARLINK-3089,1 49166U 21082AN  22084.91668981  .00000849  00000-0  82149-4 0  9992,2 49166  70.0000 316.2653 0002976 273.8519  50.8139 14.96714467  3626,6955.193,96.211,579.128,574.988,0.0
49166.0,STARLINK-3089,PAYLOAD,2022-03-26 06:00:00,14.96759391,0.0003076,69.9992,315.4167,274.4324,45.779,-0.0083997,-0.00095044,0.0,0 STARLINK-3089,1 49166U 21082AN  22085.25001157 -.00095044  00000-0 -83997-2 0  9999,2 49166  69.9992 315.4167 0003076 274.4324  45.7790 14.96759391 31337,6955.054,96.208,579.058,574.78,0.0
49166.0,STARLINK-3089,PAYLOAD,2022-03-26 14:00:01,14.96687304,0.0003116,69.9995,314.5784,268.7257,47.048,0.0037405,0.00042954,0.0,0 STARLINK-3089,1 49166U 21082AN  22085.58334491  .00042954  00000-0  37405-2 0  9998,2 49166  69.9995 314.5784 0003116 268.7257  47.0480 14.96687304 31381,6955.276999999999,96.212,579.31,574.975,0.0
49166.0,STARLINK-3089,PAYLOAD,2022-03-26 22:00:00,14.96697806,0.0003118,69.9995,313.7401,274.3321,36.9774,0.00071558,8.105e-05,0.0,0 STARLINK-3089,1 49166U 21082AN  22085.91667824  .00008105  00000-0  71558-3 0  9992,2 49166  69.9995 313.7401 0003118 274.3321  36.9774 14.96697806  3587,6955.245,96.212,579.279,574.941,0.0
49166.0,STARLINK-3089,PAYLOAD,2022-03-27 06:00:00,14.96729804,0.0003057,69.9991,312.9017,274.5488,32.2822,-0.0045201999999999,-0.00051469,0.0,0 STARLINK-3089,1 49166U 21082AN  22086.25001157 -.00051469  00000-0 -45202-2 0  9990,2 49166  69.9991 312.9017 0003057 274.5488  32.2822 14.96729804 31482,6955.146,96.21,579.137,574.885,0.0
49166.0,STARLINK-3089,PAYLOAD,2022-03-27 14:00:01,14.96698449,0.0003035,69.9993,312.0634,268.8551,33.5192,0.0032704,0.00037526,0.0,0 STARLINK-3089,1 49166U 21082AN  22086.58334491  .00037526  00000-0  32704-2 0  9995,2 49166  69.9993 312.0634 0003035 268.8551  33.5192 14.96698449  3598,6955.243,96.212,579.219,574.997,0.0
49166.0,STARLINK-3089,PAYLOAD,2022-03-27 22:00:01,14.96705721,0.0003053,69.9992,311.225,274.9443,23.0414,0.0012302,0.00014014,0.0,0 STARLINK-3089,1 49166U 21082AN  22086.91668981  .00014014  00000-0  12302-2 0  9995,2 49166  69.9992 311.2250 0003053 274.9443  23.0414 14.96705721 31583,6955.22,96.211,579.2090000000002,574.962,0.0
49166.0,STARLINK-3089,PAYLOAD,2022-03-28 14:00:01,14.9671424,0.0002993,69.9991,309.5482,268.4298,20.6503,0.0028602,0.00032798,0.0,0 STARLINK-3089,1 49166U 21082AN  22087.58335648  .00032798  00000-0  28602-2 0  9999,2 49166  69.9991 309.5482 0002993 268.4298  20.6503 14.96714240  3540,6955.194,96.211,579.141,574.977,0.0
49166.0,STARLINK-3089,PAYLOAD,2022-03-28 22:00:00,14.96721248,0.0003052,69.999,308.7097,274.284,10.2992,0.00072215,8.185e-05,0.0,0 STARLINK-3089,1 49166U 21082AN  22087.91667824  .00008185  00000-0  72215-3 0  9993,2 49166  69.9990 308.7097 0003052 274.2840  10.2992 14.96721248  3562,6955.172,96.21,579.16,574.915,0.0
49166.0,STARLINK-3089,PAYLOAD,2022-03-29 06:00:02,14.96744273,0.0003105,69.9985,307.8712,273.28,6.92,-0.0068882,-0.00078116,0.0,0 STARLINK-3089,1 49166U 21082AN  22088.25002315 -.00078116  00000-0 -68882-2 0  9996,2 49166  69.9985 307.8712 0003105 273.2800   6.9200 14.96744273 31786,6955.101,96.209,579.126,574.806,0.0
49166.0,STARLINK-3089,PAYLOAD,2022-03-29 14:00:01,14.96700788,0.0003135,69.9987,307.0329,267.6286,8.0537,0.0023722,0.00027156,0.0,0 STARLINK-3089,1 49166U 21082AN  22088.58334491  .00027156  00000-0  23722-2 0  9995,2 49166  69.9987 307.0329 0003135 267.6286   8.0537 14.96700788 31837,6955.236,96.212,579.281,574.92,0.0
49166.0,STARLINK-3089,PAYLOAD,2022-03-29 22:00:00,14.96700279,0.0003177,69.9985,306.1943,273.4631,357.7671,0.0016070999999999,0.00018344,0.0,0 STARLINK-3089,1 49166U 21082AN  22088.91667824  .00018344  00000-0  16071-2 0  9999,2 49166  69.9985 306.1943 0003177 273.4631 357.7671 14.96700279  3547,6955.236999999999,96.212,579.312,574.893,0.0
49166.0,STARLINK-3089,PAYLOAD,2022-03-30 02:00:01,14.96704025,0.0003226,69.9983,305.775,274.7326,174.2655,0.0021427,0.00024512,0.0,0 STARLINK-3089,1 49166U 21082AN  22089.08334491  .00024512  00000-0  21427-2 0  9994,2 49166  69.9983 305.7750 0003226 274.7326 174.2655 14.96704025 31904,6955.226,96.211,579.3340000000002,574.847,0.0
49166.0,STARLINK-3089,PAYLOAD,2022-03-30 14:00:01,14.96716311,0.0003191999999999,69.9985,304.5174,267.2318,355.139,0.0018168,0.00020765,0.0,0 STARLINK-3089,1 49166U 21082AN  22089.58335648  .00020765  00000-0  18168-2 0  9998,2 49166  69.9985 304.5174 0003192 267.2318 355.1390 14.96716311  3549,6955.188,96.211,579.273,574.832,0.0
49166.0,STARLINK-3089,PAYLOAD,2022-03-30 22:00:00,14.96709957,0.0003182,69.9982,303.6789,273.2765,344.5957,0.0016585,0.0001894,0.0,0 STARLINK-3089,1 49166U 21082AN  22089.91667824  .00018940  00000-0  16585-2 0  9992,2 49166  69.9982 303.6789 0003182 273.2765 344.5957 14.96709957 32024,6955.206999999999,96.211,579.285,574.859,0.0
49166.0,STARLINK-3089,PAYLOAD,2022-03-31 14:00:01,14.96706447,0.0003081,69.9982,302.002,267.1558,341.8044,0.0012506,0.00014248,0.0,0 STARLINK-3089,1 49166U 21082AN  22090.58334491  .00014248  00000-0  12506-2 0  9994,2 49166  69.9982 302.0020 0003081 267.1558 341.8044 14.96706447 32124,6955.218000000003,96.211,579.226,574.94,0.0
49166.0,STARLINK-3089,PAYLOAD,2022-03-31 22:00:00,14.96694137,0.0003076,69.9978,301.1634,273.9059,330.6059,0.0027812,0.00031869,0.0,0 STARLINK-3089,1 49166U 21082AN  22090.91667824  .00031869  00000-0  27812-2 0  9994,2 49166  69.9978 301.1634 0003076 273.9059 330.6059 14.96694137  3543,6955.255999999999,96.212,579.261,574.982,0.0
